KUZGTU 1 (RS47S)        
1 57217U 23091AV  26181.57221835  .00011661  00000+0  40122-3 0  9994
2 57217  97.5060 246.1902 0011585  56.0707 304.1633 15.30162288166425
SONATE-2                
1 59112U 24043Q   26181.35906171  .00036054  00000+0  45103-3 0  9994
2 59112  97.5538 332.5725 0007218 152.8978 207.2657 15.59704292129940
MESAT1                  
1 60209U 24125G   26181.09552302  .00055795  00000+0  57395-3 0  9997
2 60209  97.2269  38.8841 0010656 159.6539 200.5147 15.64639845111588
OOV-CUBE (TUBSAT-30)    
1 60240U 24128F   26181.56269238  .00001824  00000+0  14864-3 0  9998
2 60240  61.9924 178.9308 0042979 136.7327 223.7153 15.02821133108122
COLIBRI-S (RS67S)       
1 61746U 24199M   26181.57216306  .00021386  00000+0  40627-3 0  9998
2 61746  97.2973  55.5520 0007034 216.5144 143.5628 15.48268723139482
HORS 3 (RS81S)          
1 61753U 24199U   26181.59969229  .00035022  00000+0  50528-3 0  9990
2 61753  97.2958  57.7149 0004991 207.0778 153.0217 15.55898205139641
HORS 4 (RS82S)          
1 61754U 24199V   26181.51851649  .00052304  00000+0  62273-3 0  9991
2 61754  97.2902  58.9224 0005026 193.6138 166.4985 15.60943309139729
SIT-2086                
1 61764U 24199AF  26181.59424348  .00035280  00000+0  54524-3 0  9996
2 61764  97.2913  58.1396 0006320 191.4377 168.6734 15.54000947136518
HYPERVIEW 1G (RS66S)    
1 61772U 24199AP  26181.57264012  .00169708  00000+0  90939-3 0  9996
2 61772  97.2834  62.0035 0006942 177.6158 182.5144 15.79801736136787
ALTAIR (RS65S)          
1 61779U 24199AW  26181.58736207  .00010631  00000+0  29273-3 0  9997
2 61779  97.3011  50.8510 0010832 254.8099 105.1949 15.37277307139175
ASRTU-1 (AO-123)        
1 61781U 24199AY  26181.58723037  .00007428  00000+0  21468-3 0  9995
2 61781  97.2983  50.1377 0011916 258.7537 101.2368 15.35862198135986
SAMSAT-IONOSPHERE (RS7*)
1 61784U 24199BB  26181.60982534  .00043730  00000+0  56512-3 0  9994
2 61784  97.2924  57.8225 0007201 212.2875 147.7941 15.58802435139655
RTU MIREA 1 (RS51S)     
1 61785U 24199BC  26181.60330124  .00057400  00000+0  64095-3 0  9991
2 61785  97.2910  58.7193 0007308 204.6990 155.3920 15.62572164136563
TEVEL2-4                
1 63213U 25052D   26180.96071089  .00019361  00000+0  57064-3 0  9990
2 63213  97.3893  77.3762 0004732  79.7406 280.4371 15.35054118 72071
TEVEL2-5                
1 63214U 25052E   26181.24344693  .00016701  00000+0  49542-3 0  9994
2 63214  97.3890  77.6036 0004701  80.7172 279.4603 15.34882414 72112
TEVEL2-6                
1 63215U 25052F   26181.51685502  .00018240  00000+0  54121-3 0  9991
2 63215  97.3897  77.8619 0004504  81.0945 279.0808 15.34857280 72152
TEVEL2-1                
1 63217U 25052H   26180.96361751  .00018395  00000+0  55563-3 0  9990
2 63217  97.3866  76.9168 0004974  89.0963 271.0850 15.34288206 72052
TEVEL2-3                
1 63218U 25052J   26180.95778371  .00018482  00000+0  55722-3 0  9994
2 63218  97.3871  76.9346 0004828  90.2105 269.9691 15.34347673 72050
TEVEL2-2                
1 63219U 25052K   26179.65946029  .00016937  00000+0  51245-3 0  9996
2 63219  97.3871  75.6148 0005015  92.1173 268.0645 15.34253315 71857
OTP-2                   
1 63235U 25052AB  26181.22703005  .00007022  00000+0  29121-3 0  9998
2 63235  97.3859  73.4628 0008158 111.1138 249.0973 15.24154574 71853
TEVEL2-9                
1 63237U 25052AD  26181.21912539  .00014659  00000+0  47181-3 0  9993
2 63237  97.3929  76.5220 0008308  96.6090 263.6098 15.32290550 72020
TEVEL2-7                
1 63238U 25052AE  26181.26257746  .00014369  00000+0  46698-3 0  9991
2 63238  97.3932  76.4758 0008371  96.4630 263.7565 15.31985116 72026
TEVEL2-8                
1 63239U 25052AF  26181.20563920  .00014292  00000+0  46472-3 0  9995
2 63239  97.3932  76.3954 0008440  97.2611 262.9590 15.31968777 72011
INNOSAT 16 (RS92S7)     
1 64878U 25155C   26181.57990415  .00005996  00000+0  23848-3 0  9995
2 64878  97.4571 148.6663 0011943 132.1055 228.1200 15.25595598 82714
GEOSCAN 6 (RS92S6)      
1 64879U 25155D   26181.58657179  .00010563  00000+0  36135-3 0  9993
2 64879  97.4561 150.1925 0009679 122.5719 237.6458 15.30396270 82819
GEOSCAN 1 (RS92S1)      
1 64880U 25155E   26181.58370057  .00011030  00000+0  36999-3 0  9990
2 64880  97.4558 150.3494 0009624 122.6381 237.5790 15.31020736 82827
239ALFEROV (RS61S)      
1 64881U 25155F   26181.53386790  .00014541  00000+0  45351-3 0  9999
2 64881  97.4558 150.9063 0009302 121.4032 238.8121 15.33293669 82853
GEOSCAN 2 (RS92S2)      
1 64890U 25155Q   26181.57504045  .00010537  00000+0  35082-3 0  9999
2 64890  97.4557 150.4985 0009112 111.7826 248.4386 15.31280723 82835
GEOSCAN 5 (RS92S5)      
1 64891U 25155R   26181.58538883  .00014379  00000+0  44421-3 0  9993
2 64891  97.4550 151.1009 0008212 124.6892 235.5125 15.33609524 82878
GEOSCAN 4 (RS92S4)      
1 64892U 25155S   26181.56821191  .00013890  00000+0  42703-3 0  9997
2 64892  97.4554 151.1358 0008247 124.5035 235.6987 15.33770203 82876
