OBJECT_NAME,OBJECT_ID,EPOCH,MEAN_MOTION,ECCENTRICITY,INCLINATION,RA_OF_ASC_NODE,ARG_OF_PERICENTER,MEAN_ANOMALY,EPHEMERIS_TYPE,CLASSIFICATION_TYPE,NORAD_CAT_ID,ELEMENT_SET_NO,REV_AT_EPOCH,BSTAR,MEAN_MOTION_DOT,MEAN_MOTION_DDOT
KUZGTU 1 (RS47S),2023-091AV,2026-06-30T13:43:59.665440,15.30162288,.00115854,97.5060,246.1902,56.0707,304.1633,0,U,57217,999,16642,.40122249E-3,.11661E-3,0
SONATE-2,2024-043Q,2026-06-30T08:37:02.931744,15.59704292,.00072185,97.5538,332.5725,152.8978,207.2657,0,U,59112,999,12994,.45102992E-3,.36054E-3,0
MESAT1,2024-125G,2026-06-30T02:17:33.188928,15.64639845,.00106565,97.2269,38.8841,159.6539,200.5147,0,U,60209,999,11158,.57394663E-3,.55795E-3,0
OOV-CUBE (TUBSAT-30),2024-128F,2026-06-30T13:30:16.621632,15.02821133,.0042979,61.9924,178.9308,136.7327,223.7153,0,U,60240,999,10812,.14863728E-3,.1824E-4,0
COLIBRI-S (RS67S),2024-199M,2026-06-30T13:43:54.888384,15.48268723,.00070346,97.2973,55.5520,216.5144,143.5628,0,U,61746,999,13948,.40627167E-3,.21386E-3,0
HORS 3 (RS81S),2024-199U,2026-06-30T14:23:33.413856,15.55898205,.00049915,97.2958,57.7149,207.0778,153.0217,0,U,61753,999,13964,.5052756E-3,.35022E-3,0
HORS 4 (RS82S),2024-199V,2026-06-30T12:26:39.824736,15.60943309,.00050263,97.2902,58.9224,193.6138,166.4985,0,U,61754,999,13972,.62273378E-3,.52304E-3,0
SIT-2086,2024-199AF,2026-06-30T14:15:42.636672,15.54000947,.00063207,97.2913,58.1396,191.4377,168.6734,0,U,61764,999,13651,.54524449E-3,.3528E-3,0
HYPERVIEW 1G (RS66S),2024-199AP,2026-06-30T13:44:36.106368,15.79801736,.00069422,97.2834,62.0035,177.6158,182.5144,0,U,61772,999,13678,.90938782E-3,.169708E-2,0
ALTAIR (RS65S),2024-199AW,2026-06-30T14:05:48.082848,15.37277307,.0010832,97.3011,50.8510,254.8099,105.1949,0,U,61779,999,13917,.2927296E-3,.10631E-3,0
ASRTU-1 (AO-123),2024-199AY,2026-06-30T14:05:36.703968,15.35862198,.00119161,97.2983,50.1377,258.7537,101.2368,0,U,61781,999,13598,.21468E-3,.7428E-4,0
SAMSAT-IONOSPHERE (RS75S),2024-199BB,2026-06-30T14:38:08.909376,15.58802435,.00072014,97.2924,57.8225,212.2875,147.7941,0,U,61784,999,13965,.56512482E-3,.4373E-3,0
RTU MIREA 1 (RS51S),2024-199BC,2026-06-30T14:28:45.227136,15.62572164,.00073084,97.2910,58.7193,204.6990,155.3920,0,U,61785,999,13656,.64095489E-3,.574E-3,0
TEVEL2-4,2025-052D,2026-06-29T23:03:25.420896,15.35054118,.00047321,97.3893,77.3762,79.7406,280.4371,0,U,63213,999,7207,.57064181E-3,.19361E-3,0
TEVEL2-5,2025-052E,2026-06-30T05:50:33.814752,15.34882414,.00047019,97.3890,77.6036,80.7172,279.4603,0,U,63214,999,7211,.49541717E-3,.16701E-3,0
TEVEL2-6,2025-052F,2026-06-30T12:24:16.273728,15.34857280,.00045046,97.3897,77.8619,81.0945,279.0808,0,U,63215,999,7215,.54121331E-3,.1824E-3,0
TEVEL2-1,2025-052H,2026-06-29T23:07:36.552864,15.34288206,.00049749,97.3866,76.9168,89.0963,271.0850,0,U,63217,999,7205,.5556305E-3,.18395E-3,0
TEVEL2-3,2025-052J,2026-06-29T22:59:12.512544,15.34347673,.00048285,97.3871,76.9346,90.2105,269.9691,0,U,63218,999,7205,.55721892E-3,.18482E-3,0
TEVEL2-2,2025-052K,2026-06-28T15:49:37.369056,15.34253315,.00050154,97.3871,75.6148,92.1173,268.0645,0,U,63219,999,7185,.51245467E-3,.16937E-3,0
OTP-2,2025-052AB,2026-06-30T05:26:55.396320,15.24154574,.00081582,97.3859,73.4628,111.1138,249.0973,0,U,63235,999,7185,.29120606E-3,.7022E-4,0
TEVEL2-9,2025-052AD,2026-06-30T05:15:32.433696,15.32290550,.00083087,97.3929,76.5220,96.6090,263.6098,0,U,63237,999,7202,.47181125E-3,.14659E-3,0
TEVEL2-7,2025-052AE,2026-06-30T06:18:06.692544,15.31985116,.00083715,97.3932,76.4758,96.4630,263.7565,0,U,63238,999,7202,.4669777E-3,.14369E-3,0
TEVEL2-8,2025-052AF,2026-06-30T04:56:07.226880,15.31968777,.00084407,97.3932,76.3954,97.2611,262.9590,0,U,63239,999,7201,.46472165E-3,.14292E-3,0
INNOSAT 16 (RS92S7),2025-155C,2026-06-30T13:55:03.718560,15.25595598,.00119431,97.4571,148.6663,132.1055,228.1200,0,U,64878,999,8271,.2384809E-3,.5996E-4,0
GEOSCAN 6 (RS92S6),2025-155D,2026-06-30T14:04:39.802656,15.30396270,.00096792,97.4561,150.1925,122.5719,237.6458,0,U,64879,999,8281,.3613532E-3,.10563E-3,0
GEOSCAN 1 (RS92S1),2025-155E,2026-06-30T14:00:31.729248,15.31020736,.00096241,97.4558,150.3494,122.6381,237.5790,0,U,64880,999,8282,.36999019E-3,.1103E-3,0
239ALFEROV (RS61S),2025-155F,2026-06-30T12:48:46.186560,15.33293669,.00093028,97.4558,150.9063,121.4032,238.8121,0,U,64881,999,8285,.45351089E-3,.14541E-3,0
GEOSCAN 2 (RS92S2),2025-155Q,2026-06-30T13:48:03.494880,15.31280723,.00091124,97.4557,150.4985,111.7826,248.4386,0,U,64890,999,8283,.35082091E-3,.10537E-3,0
GEOSCAN 5 (RS92S5),2025-155R,2026-06-30T14:02:57.594912,15.33609524,.00082125,97.4550,151.1009,124.6892,235.5125,0,U,64891,999,8287,.44420572E-3,.14379E-3,0
GEOSCAN 4 (RS92S4),2025-155S,2026-06-30T13:38:13.509024,15.33770203,.00082473,97.4554,151.1358,124.5035,235.6987,0,U,64892,999,8287,.4270316E-3,.1389E-3,0
